ONEWEB-0297             
1 49086U 21075M   25310.27082592 -.00000353  00000+0 -10158-2 0  9997
2 49086  87.8967  34.9778 0001674 100.1976 259.9341 13.12441764205940
ONEWEB-0298             
1 49087U 21075N   25310.31944660  .00001175  00000+0  29931-2 0  9996
2 49087  87.9129  50.1908 0001862 101.6946 258.4394 13.17644591204274
ONEWEB-0299             
1 49088U 21075P   25310.32100013  .00000031  00000+0  46476-4 0  9999
2 49088  87.9138  50.1491 0001523  98.1285 262.0020 13.17649695204257
ONEWEB-0300             
1 49089U 21075Q   25310.26271995 -.00000379  00000+0 -10900-2 0  9999
2 49089  87.8973  34.9357 0001657 112.6470 247.4834 13.12441258205960
ONEWEB-0301             
1 49090U 21075R   25310.24650931  .00000065  00000+0  14619-3 0  9992
2 49090  87.8971  34.9422 0001625 116.3330 243.7965 13.12443746205322
ONEWEB-0302             
1 49091U 21075S   25310.30977241  .00000425  00000+0  11465-2 0  9991
2 49091  87.8973  34.9375 0001951  91.8328 268.3024 13.12441450205316
ONEWEB-0304             
1 49092U 21075T   25310.29568731  .00000046  00000+0  84932-4 0  9990
2 49092  87.9137  50.1846 0001622  96.8946 263.2370 13.17650978204228
ONEWEB-0305             
1 49093U 21075U   25310.28893045  .00000052  00000+0  10176-3 0  9994
2 49093  87.9141  50.1630 0001389  89.6819 270.4472 13.17651773204254
ONEWEB-0308             
1 49094U 21075V   25310.22704853  .00000481  00000+0  13030-2 0  9994
2 49094  87.8979  34.9465 0001721 101.0816 259.0506 13.12441926205316
ONEWEB-0309             
1 49095U 21075W   25310.29231529  .00000101  00000+0  22583-3 0  9990
2 49095  87.9137  50.1784 0001997  91.3101 268.8260 13.17650259204221
ONEWEB-0310             
1 49096U 21075X   25310.31788573  .00000239  00000+0  62964-3 0  9999
2 49096  87.8967  34.9682 0001825  98.3332 261.8004 13.12442065205951
ONEWEB-0311             
1 49097U 21075Y   25310.29904794 -.00000225  00000+0 -61324-3 0  9998
2 49097  87.9139  50.1741 0001353  95.7144 264.4142 13.17649137204278
ONEWEB-0312             
1 49098U 21075Z   25310.31424703  .00000068  00000+0  14172-3 0  9991
2 49098  87.9129  50.1993 0001618  89.1340 270.9977 13.17650333204252
ONEWEB-0313             
1 49099U 21075AA  25310.31917735  .00000038  00000+0  65576-4 0  9996
2 49099  87.9121  50.2068 0001615  98.2851 261.8463 13.17649859204243
ONEWEB-0314             
1 49100U 21075AB  25310.28556516  .00000089  00000+0  19505-3 0  9997
2 49100  87.9137  50.1610 0001565  87.7666 272.3645 13.17650346204215
ONEWEB-0315             
1 49101U 21075AC  25310.21569478  .00000313  00000+0  83530-3 0  9991
2 49101  87.8978  34.9360 0001332  99.9639 260.1640 13.12443085205921
ONEWEB-0316             
1 49102U 21075AD  25310.23371649  .00000000  00000+0 -33337-4 0  9990
2 49102  87.9230  19.7491 0001678  98.8442 261.2880 13.18687165207827
