[{"OBJECT_NAME":"ONEWEB-0297","OBJECT_ID":"2021-075M","EPOCH":"2025-11-06T06:29:59.359488","MEAN_MOTION":13.12441764,"ECCENTRICITY":0.00016742,"INCLINATION":87.8967,"RA_OF_ASC_NODE":34.9778,"ARG_OF_PERICENTER":100.1976,"MEAN_ANOMALY":259.9341,"EPHEMERIS_TYPE":0,"CLASSIFICATION_TYPE":"U","NORAD_CAT_ID":49086,"ELEMENT_SET_NO":999,"REV_AT_EPOCH":20594,"BSTAR":-0.0010158422,"MEAN_MOTION_DOT":-3.53e-6,"MEAN_MOTION_DDOT":0},{"OBJECT_NAME":"ONEWEB-0298","OBJECT_ID":"2021-075N","EPOCH":"2025-11-06T07:40:00.186240","MEAN_MOTION":13.17644591,"ECCENTRICITY":0.00018621,"INCLINATION":87.9129,"RA_OF_ASC_NODE":50.1908,"ARG_OF_PERICENTER":101.6946,"MEAN_ANOMALY":258.4394,"EPHEMERIS_TYPE":0,"CLASSIFICATION_TYPE":"U","NORAD_CAT_ID":49087,"ELEMENT_SET_NO":999,"REV_AT_EPOCH":20427,"BSTAR":0.0029930685,"MEAN_MOTION_DOT":1.175e-5,"MEAN_MOTION_DDOT":0},{"OBJECT_NAME":"ONEWEB-0299","OBJECT_ID":"2021-075P","EPOCH":"2025-11-06T07:42:14.411232","MEAN_MOTION":13.17649695,"ECCENTRICITY":0.00015234,"INCLINATION":87.9138,"RA_OF_ASC_NODE":50.1491,"ARG_OF_PERICENTER":98.1285,"MEAN_ANOMALY":262.002,"EPHEMERIS_TYPE":0,"CLASSIFICATION_TYPE":"U","NORAD_CAT_ID":49088,"ELEMENT_SET_NO":999,"REV_AT_EPOCH":20425,"BSTAR":4.6476368e-5,"MEAN_MOTION_DOT":3.1e-7,"MEAN_MOTION_DDOT":0},{"OBJECT_NAME":"ONEWEB-0300","OBJECT_ID":"2021-075Q","EPOCH":"2025-11-06T06:18:19.003680","MEAN_MOTION":13.12441258,"ECCENTRICITY":0.00016575,"INCLINATION":87.8973,"RA_OF_ASC_NODE":34.9357,"ARG_OF_PERICENTER":112.647,"MEAN_ANOMALY":247.4834,"EPHEMERIS_TYPE":0,"CLASSIFICATION_TYPE":"U","NORAD_CAT_ID":49089,"ELEMENT_SET_NO":999,"REV_AT_EPOCH":20596,"BSTAR":-0.0010899512,"MEAN_MOTION_DOT":-3.79e-6,"MEAN_MOTION_DDOT":0},{"OBJECT_NAME":"ONEWEB-0301","OBJECT_ID":"2021-075R","EPOCH":"2025-11-06T05:54:58.404384","MEAN_MOTION":13.12443746,"ECCENTRICITY":0.00016254,"INCLINATION":87.8971,"RA_OF_ASC_NODE":34.9422,"ARG_OF_PERICENTER":116.333,"MEAN_ANOMALY":243.7965,"EPHEMERIS_TYPE":0,"CLASSIFICATION_TYPE":"U","NORAD_CAT_ID":49090,"ELEMENT_SET_NO":999,"REV_AT_EPOCH":20532,"BSTAR":0.00014619101,"MEAN_MOTION_DOT":6.5e-7,"MEAN_MOTION_DDOT":0},{"OBJECT_NAME":"ONEWEB-0302","OBJECT_ID":"2021-075S","EPOCH":"2025-11-06T07:26:04.336224","MEAN_MOTION":13.1244145,"ECCENTRICITY":0.00019512,"INCLINATION":87.8973,"RA_OF_ASC_NODE":34.9375,"ARG_OF_PERICENTER":91.8328,"MEAN_ANOMALY":268.3024,"EPHEMERIS_TYPE":0,"CLASSIFICATION_TYPE":"U","NORAD_CAT_ID":49091,"ELEMENT_SET_NO":999,"REV_AT_EPOCH":20531,"BSTAR":0.001146486,"MEAN_MOTION_DOT":4.25e-6,"MEAN_MOTION_DDOT":0},{"OBJECT_NAME":"ONEWEB-0304","OBJECT_ID":"2021-075T","EPOCH":"2025-11-06T07:05:47.383584","MEAN_MOTION":13.17650978,"ECCENTRICITY":0.00016224,"INCLINATION":87.9137,"RA_OF_ASC_NODE":50.1846,"ARG_OF_PERICENTER":96.8946,"MEAN_ANOMALY":263.237,"EPHEMERIS_TYPE":0,"CLASSIFICATION_TYPE":"U","NORAD_CAT_ID":49092,"ELEMENT_SET_NO":999,"REV_AT_EPOCH":20422,"BSTAR":8.4932338e-5,"MEAN_MOTION_DOT":4.6e-7,"MEAN_MOTION_DDOT":0},{"OBJECT_NAME":"ONEWEB-0305","OBJECT_ID":"2021-075U","EPOCH":"2025-11-06T06:56:03.590880","MEAN_MOTION":13.17651773,"ECCENTRICITY":0.00013899,"INCLINATION":87.9141,"RA_OF_ASC_NODE":50.163,"ARG_OF_PERICENTER":89.6819,"MEAN_ANOMALY":270.4472,"EPHEMERIS_TYPE":0,"CLASSIFICATION_TYPE":"U","NORAD_CAT_ID":49093,"ELEMENT_SET_NO":999,"REV_AT_EPOCH":20425,"BSTAR":0.00010175725,"MEAN_MOTION_DOT":5.2e-7,"MEAN_MOTION_DDOT":0},{"OBJECT_NAME":"ONEWEB-0308","OBJECT_ID":"2021-075V","EPOCH":"2025-11-06T05:26:56.992992","MEAN_MOTION":13.12441926,"ECCENTRICITY":0.00017216,"INCLINATION":87.8979,"RA_OF_ASC_NODE":34.9465,"ARG_OF_PERICENTER":101.0816,"MEAN_ANOMALY":259.0506,"EPHEMERIS_TYPE":0,"CLASSIFICATION_TYPE":"U","NORAD_CAT_ID":49094,"ELEMENT_SET_NO":999,"REV_AT_EPOCH":20531,"BSTAR":0.0013029926,"MEAN_MOTION_DOT":4.81e-6,"MEAN_MOTION_DDOT":0},{"OBJECT_NAME":"ONEWEB-0309","OBJECT_ID":"2021-075W","EPOCH":"2025-11-06T07:00:56.041056","MEAN_MOTION":13.17650259,"ECCENTRICITY":0.00019972,"INCLINATION":87.9137,"RA_OF_ASC_NODE":50.1784,"ARG_OF_PERICENTER":91.3101,"MEAN_ANOMALY":268.826,"EPHEMERIS_TYPE":0,"CLASSIFICATION_TYPE":"U","NORAD_CAT_ID":49095,"ELEMENT_SET_NO":999,"REV_AT_EPOCH":20422,"BSTAR":0.00022583407,"MEAN_MOTION_DOT":1.01e-6,"MEAN_MOTION_DDOT":0},{"OBJECT_NAME":"ONEWEB-0310","OBJECT_ID":"2021-075X","EPOCH":"2025-11-06T07:37:45.327072","MEAN_MOTION":13.12442065,"ECCENTRICITY":0.00018251,"INCLINATION":87.8967,"RA_OF_ASC_NODE":34.9682,"ARG_OF_PERICENTER":98.3332,"MEAN_ANOMALY":261.8004,"EPHEMERIS_TYPE":0,"CLASSIFICATION_TYPE":"U","NORAD_CAT_ID":49096,"ELEMENT_SET_NO":999,"REV_AT_EPOCH":20595,"BSTAR":0.00062964045,"MEAN_MOTION_DOT":2.39e-6,"MEAN_MOTION_DDOT":0},{"OBJECT_NAME":"ONEWEB-0311","OBJECT_ID":"2021-075Y","EPOCH":"2025-11-06T07:10:37.742016","MEAN_MOTION":13.17649137,"ECCENTRICITY":0.00013533,"INCLINATION":87.9139,"RA_OF_ASC_NODE":50.1741,"ARG_OF_PERICENTER":95.7144,"MEAN_ANOMALY":264.4142,"EPHEMERIS_TYPE":0,"CLASSIFICATION_TYPE":"U","NORAD_CAT_ID":49097,"ELEMENT_SET_NO":999,"REV_AT_EPOCH":20427,"BSTAR":-0.00061324336,"MEAN_MOTION_DOT":-2.25e-6,"MEAN_MOTION_DDOT":0},{"OBJECT_NAME":"ONEWEB-0312","OBJECT_ID":"2021-075Z","EPOCH":"2025-11-06T07:32:30.943392","MEAN_MOTION":13.17650333,"ECCENTRICITY":0.00016187,"INCLINATION":87.9129,"RA_OF_ASC_NODE":50.1993,"ARG_OF_PERICENTER":89.134,"MEAN_ANOMALY":270.9977,"EPHEMERIS_TYPE":0,"CLASSIFICATION_TYPE":"U","NORAD_CAT_ID":49098,"ELEMENT_SET_NO":999,"REV_AT_EPOCH":20425,"BSTAR":0.00014172104,"MEAN_MOTION_DOT":6.8e-7,"MEAN_MOTION_DDOT":0},{"OBJECT_NAME":"ONEWEB-0313","OBJECT_ID":"2021-075AA","EPOCH":"2025-11-06T07:39:36.923040","MEAN_MOTION":13.17649859,"ECCENTRICITY":0.0001615,"INCLINATION":87.9121,"RA_OF_ASC_NODE":50.2068,"ARG_OF_PERICENTER":98.2851,"MEAN_ANOMALY":261.8463,"EPHEMERIS_TYPE":0,"CLASSIFICATION_TYPE":"U","NORAD_CAT_ID":49099,"ELEMENT_SET_NO":999,"REV_AT_EPOCH":20424,"BSTAR":6.5575661e-5,"MEAN_MOTION_DOT":3.8e-7,"MEAN_MOTION_DDOT":0},{"OBJECT_NAME":"ONEWEB-0314","OBJECT_ID":"2021-075AB","EPOCH":"2025-11-06T06:51:12.829824","MEAN_MOTION":13.17650346,"ECCENTRICITY":0.00015651,"INCLINATION":87.9137,"RA_OF_ASC_NODE":50.161,"ARG_OF_PERICENTER":87.7666,"MEAN_ANOMALY":272.3645,"EPHEMERIS_TYPE":0,"CLASSIFICATION_TYPE":"U","NORAD_CAT_ID":49100,"ELEMENT_SET_NO":999,"REV_AT_EPOCH":20421,"BSTAR":0.00019505129,"MEAN_MOTION_DOT":8.9e-7,"MEAN_MOTION_DDOT":0},{"OBJECT_NAME":"ONEWEB-0315","OBJECT_ID":"2021-075AC","EPOCH":"2025-11-06T05:10:36.028992","MEAN_MOTION":13.12443085,"ECCENTRICITY":0.00013328,"INCLINATION":87.8978,"RA_OF_ASC_NODE":34.936,"ARG_OF_PERICENTER":99.9639,"MEAN_ANOMALY":260.164,"EPHEMERIS_TYPE":0,"CLASSIFICATION_TYPE":"U","NORAD_CAT_ID":49101,"ELEMENT_SET_NO":999,"REV_AT_EPOCH":20592,"BSTAR":0.0008352964,"MEAN_MOTION_DOT":3.13e-6,"MEAN_MOTION_DDOT":0},{"OBJECT_NAME":"ONEWEB-0316","OBJECT_ID":"2021-075AD","EPOCH":"2025-11-06T05:36:33.104736","MEAN_MOTION":13.18687165,"ECCENTRICITY":0.00016786,"INCLINATION":87.923,"RA_OF_ASC_NODE":19.7491,"ARG_OF_PERICENTER":98.8442,"MEAN_ANOMALY":261.288,"EPHEMERIS_TYPE":0,"CLASSIFICATION_TYPE":"U","NORAD_CAT_ID":49102,"ELEMENT_SET_NO":999,"REV_AT_EPOCH":20782,"BSTAR":-3.3337311e-5,"MEAN_MOTION_DOT":0,"MEAN_MOTION_DDOT":0}]
